[{"OBJECT_NAME":"STARLINK-36751","OBJECT_ID":"2026-026J","EPOCH":"2026-03-03T14:00:03.000384","MEAN_MOTION":15.73917642,"ECCENTRICITY":0.00016093,"INCLINATION":97.2837,"RA_OF_ASC_NODE":116.9731,"ARG_OF_PERICENTER":87.446,"MEAN_ANOMALY":159.5921,"EPHEMERIS_TYPE":0,"CLASSIFICATION_TYPE":"U","NORAD_CAT_ID":67729,"ELEMENT_SET_NO":999,"REV_AT_EPOCH":433,"BSTAR":-0.015078259,"MEAN_MOTION_DOT":-0.0185985,"MEAN_MOTION_DDOT":0},{"OBJECT_NAME":"STARLINK-36747","OBJECT_ID":"2026-026K","EPOCH":"2026-03-03T14:00:03.000384","MEAN_MOTION":15.73818553,"ECCENTRICITY":0.0001628,"INCLINATION":97.2836,"RA_OF_ASC_NODE":116.9695,"ARG_OF_PERICENTER":89.5857,"MEAN_ANOMALY":148.3067,"EPHEMERIS_TYPE":0,"CLASSIFICATION_TYPE":"U","NORAD_CAT_ID":67730,"ELEMENT_SET_NO":999,"REV_AT_EPOCH":433,"BSTAR":-0.015152359,"MEAN_MOTION_DOT":-0.01860858,"MEAN_MOTION_DDOT":0},{"OBJECT_NAME":"STARLINK-36315","OBJECT_ID":"2026-026L","EPOCH":"2026-03-03T14:00:03.000384","MEAN_MOTION":15.74092847,"ECCENTRICITY":0.0001559,"INCLINATION":97.2838,"RA_OF_ASC_NODE":116.9758,"ARG_OF_PERICENTER":97.5773,"MEAN_ANOMALY":155.9683,"EPHEMERIS_TYPE":0,"CLASSIFICATION_TYPE":"U","NORAD_CAT_ID":67731,"ELEMENT_SET_NO":999,"REV_AT_EPOCH":433,"BSTAR":-0.01494543,"MEAN_MOTION_DOT":-0.01857777,"MEAN_MOTION_DDOT":0},{"OBJECT_NAME":"STARLINK-36260","OBJECT_ID":"2026-026M","EPOCH":"2026-03-03T14:00:03.000384","MEAN_MOTION":15.74474203,"ECCENTRICITY":0.00015431,"INCLINATION":97.2838,"RA_OF_ASC_NODE":116.9792,"ARG_OF_PERICENTER":89.2188,"MEAN_ANOMALY":173.1777,"EPHEMERIS_TYPE":0,"CLASSIFICATION_TYPE":"U","NORAD_CAT_ID":67732,"ELEMENT_SET_NO":999,"REV_AT_EPOCH":433,"BSTAR":-0.014719904,"MEAN_MOTION_DOT":-0.0185998,"MEAN_MOTION_DDOT":0},{"OBJECT_NAME":"STARLINK-36746","OBJECT_ID":"2026-026N","EPOCH":"2026-03-03T14:00:03.000384","MEAN_MOTION":15.54291404,"ECCENTRICITY":0.00013654,"INCLINATION":97.2843,"RA_OF_ASC_NODE":116.8654,"ARG_OF_PERICENTER":92.5039,"MEAN_ANOMALY":252.2323,"EPHEMERIS_TYPE":0,"CLASSIFICATION_TYPE":"U","NORAD_CAT_ID":67733,"ELEMENT_SET_NO":999,"REV_AT_EPOCH":433,"BSTAR":-0.031345479,"MEAN_MOTION_DOT":-0.01816118,"MEAN_MOTION_DDOT":0},{"OBJECT_NAME":"STARLINK-36749","OBJECT_ID":"2026-026P","EPOCH":"2026-03-03T14:00:03.000384","MEAN_MOTION":15.68203436,"ECCENTRICITY":0.00017546,"INCLINATION":97.2838,"RA_OF_ASC_NODE":116.9637,"ARG_OF_PERICENTER":88.4464,"MEAN_ANOMALY":134.959,"EPHEMERIS_TYPE":0,"CLASSIFICATION_TYPE":"U","NORAD_CAT_ID":67734,"ELEMENT_SET_NO":999,"REV_AT_EPOCH":433,"BSTAR":-0.019141971,"MEAN_MOTION_DOT":-0.01892677,"MEAN_MOTION_DDOT":0},{"OBJECT_NAME":"STARLINK-36691","OBJECT_ID":"2026-026Q","EPOCH":"2026-03-03T14:00:03.000384","MEAN_MOTION":15.75303678,"ECCENTRICITY":0.00014443,"INCLINATION":97.2842,"RA_OF_ASC_NODE":116.9916,"ARG_OF_PERICENTER":90.9261,"MEAN_ANOMALY":206.8323,"EPHEMERIS_TYPE":0,"CLASSIFICATION_TYPE":"U","NORAD_CAT_ID":67735,"ELEMENT_SET_NO":999,"REV_AT_EPOCH":446,"BSTAR":-0.014192016,"MEAN_MOTION_DOT":-0.01859458,"MEAN_MOTION_DDOT":0},{"OBJECT_NAME":"STARLINK-36317","OBJECT_ID":"2026-026R","EPOCH":"2026-03-03T14:00:03.000384","MEAN_MOTION":15.75052606,"ECCENTRICITY":0.00014686,"INCLINATION":97.2841,"RA_OF_ASC_NODE":116.9868,"ARG_OF_PERICENTER":87.5132,"MEAN_ANOMALY":199.5426,"EPHEMERIS_TYPE":0,"CLASSIFICATION_TYPE":"U","NORAD_CAT_ID":67736,"ELEMENT_SET_NO":999,"REV_AT_EPOCH":433,"BSTAR":-0.014371084,"MEAN_MOTION_DOT":-0.01861969,"MEAN_MOTION_DDOT":0},{"OBJECT_NAME":"STARLINK-36330","OBJECT_ID":"2026-026S","EPOCH":"2026-03-03T14:00:03.000384","MEAN_MOTION":15.75404894,"ECCENTRICITY":0.00014756,"INCLINATION":97.2841,"RA_OF_ASC_NODE":116.9937,"ARG_OF_PERICENTER":93.7811,"MEAN_ANOMALY":210.6668,"EPHEMERIS_TYPE":0,"CLASSIFICATION_TYPE":"U","NORAD_CAT_ID":67737,"ELEMENT_SET_NO":999,"REV_AT_EPOCH":433,"BSTAR":-0.014142245,"MEAN_MOTION_DOT":-0.01860992,"MEAN_MOTION_DDOT":0},{"OBJECT_NAME":"STARLINK-36327","OBJECT_ID":"2026-026T","EPOCH":"2026-03-03T14:00:03.000384","MEAN_MOTION":15.75697546,"ECCENTRICITY":0.00013386,"INCLINATION":97.2843,"RA_OF_ASC_NODE":116.9979,"ARG_OF_PERICENTER":93.8823,"MEAN_ANOMALY":219.858,"EPHEMERIS_TYPE":0,"CLASSIFICATION_TYPE":"U","NORAD_CAT_ID":67738,"ELEMENT_SET_NO":999,"REV_AT_EPOCH":433,"BSTAR":-0.013969376,"MEAN_MOTION_DOT":-0.01861798,"MEAN_MOTION_DDOT":0},{"OBJECT_NAME":"STARLINK-36329","OBJECT_ID":"2026-026U","EPOCH":"2026-03-03T14:00:03.000384","MEAN_MOTION":15.76730715,"ECCENTRICITY":0.00013967,"INCLINATION":97.2856,"RA_OF_ASC_NODE":117.0151,"ARG_OF_PERICENTER":81.7534,"MEAN_ANOMALY":284.1771,"EPHEMERIS_TYPE":0,"CLASSIFICATION_TYPE":"U","NORAD_CAT_ID":67739,"ELEMENT_SET_NO":999,"REV_AT_EPOCH":433,"BSTAR":-0.013361752,"MEAN_MOTION_DOT":-0.01863878,"MEAN_MOTION_DDOT":0},{"OBJECT_NAME":"STARLINK-36737","OBJECT_ID":"2026-026V","EPOCH":"2026-03-03T14:00:03.000384","MEAN_MOTION":15.75848835,"ECCENTRICITY":0.00013678,"INCLINATION":97.2845,"RA_OF_ASC_NODE":117.0003,"ARG_OF_PERICENTER":90.3716,"MEAN_ANOMALY":232.7881,"EPHEMERIS_TYPE":0,"CLASSIFICATION_TYPE":"U","NORAD_CAT_ID":67740,"ELEMENT_SET_NO":999,"REV_AT_EPOCH":433,"BSTAR":-0.013855232,"MEAN_MOTION_DOT":-0.01859331,"MEAN_MOTION_DDOT":0},{"OBJECT_NAME":"STARLINK-36740","OBJECT_ID":"2026-026W","EPOCH":"2026-03-03T14:00:03.000384","MEAN_MOTION":15.7158322,"ECCENTRICITY":0.00013894,"INCLINATION":97.2844,"RA_OF_ASC_NODE":117.0039,"ARG_OF_PERICENTER":92.426,"MEAN_ANOMALY":233.9149,"EPHEMERIS_TYPE":0,"CLASSIFICATION_TYPE":"U","NORAD_CAT_ID":67741,"ELEMENT_SET_NO":999,"REV_AT_EPOCH":433,"BSTAR":-0.016593373,"MEAN_MOTION_DOT":-0.01852731,"MEAN_MOTION_DDOT":0},{"OBJECT_NAME":"STARLINK-36693","OBJECT_ID":"2026-026X","EPOCH":"2026-03-03T14:00:03.000384","MEAN_MOTION":15.72252033,"ECCENTRICITY":0.00014094,"INCLINATION":97.2842,"RA_OF_ASC_NODE":116.9972,"ARG_OF_PERICENTER":95.2703,"MEAN_ANOMALY":213.8145,"EPHEMERIS_TYPE":0,"CLASSIFICATION_TYPE":"U","NORAD_CAT_ID":67742,"ELEMENT_SET_NO":999,"REV_AT_EPOCH":446,"BSTAR":-0.016134964,"MEAN_MOTION_DOT":-0.0185344,"MEAN_MOTION_DDOT":0},{"OBJECT_NAME":"STARLINK-36717","OBJECT_ID":"2026-026Y","EPOCH":"2026-03-03T14:00:03.000384","MEAN_MOTION":15.74361381,"ECCENTRICITY":0.00013134,"INCLINATION":97.2846,"RA_OF_ASC_NODE":117.007,"ARG_OF_PERICENTER":86.2301,"MEAN_ANOMALY":252.0294,"EPHEMERIS_TYPE":0,"CLASSIFICATION_TYPE":"U","NORAD_CAT_ID":67743,"ELEMENT_SET_NO":999,"REV_AT_EPOCH":446,"BSTAR":-0.014777356,"MEAN_MOTION_DOT":-0.0185814,"MEAN_MOTION_DDOT":0},{"OBJECT_NAME":"STARLINK-36692","OBJECT_ID":"2026-026Z","EPOCH":"2026-03-03T14:00:03.000384","MEAN_MOTION":15.73118261,"ECCENTRICITY":0.00013449,"INCLINATION":97.2844,"RA_OF_ASC_NODE":117.0021,"ARG_OF_PERICENTER":87.6643,"MEAN_ANOMALY":235.7861,"EPHEMERIS_TYPE":0,"CLASSIFICATION_TYPE":"U","NORAD_CAT_ID":67744,"ELEMENT_SET_NO":999,"REV_AT_EPOCH":433,"BSTAR":-0.015569382,"MEAN_MOTION_DOT":-0.01855669,"MEAN_MOTION_DDOT":0}]
